NORAD_CAT_ID,OBJECT_NAME,OBJECT_TYPE,EPOCH,MEAN_MOTION,ECCENTRICITY,INCLINATION,RA_OF_ASC_NODE,ARG_OF_PERICENTER,MEAN_ANOMALY,BSTAR,MEAN_MOTION_DOT,MEAN_MOTION_DDOT,TLE_LINE0,TLE_LINE1,TLE_LINE2,SEMIMAJOR_AXIS,PERIOD,APOGEE,PERIGEE,DECAYED
53905.0,STARLINK-5003,PAYLOAD,2022-11-15 14:00:01,15.73142254,0.0004232,53.2157,357.5469,1.933,24.4674,0.00071761,0.00101097,0.0,0 STARLINK-5003,1 53905U 22119V   22319.58334491  .00101097  00000-0  71761-3 0  9994,2 53905  53.2157 357.5469 0004232   1.9330  24.4674 15.73142254  1308,6728.06,91.537,352.772,347.07800000000015,0.0
53905.0,STARLINK-5003,PAYLOAD,2022-11-15 22:00:00,15.73219603,0.0003994,53.2157,355.8955,1.7681,113.5353,-0.00028734,-0.00040809,0.0,0 STARLINK-5003,1 53905U 22119V   22319.91667824 -.00040809  00000-0 -28734-3 0  9997,2 53905  53.2157 355.8955 0003994   1.7681 113.5353 15.73219603  8618,6727.839,91.532,352.391,347.017,0.0
53905.0,STARLINK-5003,PAYLOAD,2022-11-16 14:00:01,15.72865556,0.0004443,53.216,352.5881,6.5891,286.6178,0.0052181999999999,0.00793712,0.0,0 STARLINK-5003,1 53905U 22119V   22320.58335648  .00793712  00000-0  52182-2 0  9997,2 53905  53.2160 352.5881 0004443   6.5891 286.6178 15.72865556  1309,6728.849,91.553,353.70300000000015,347.724,0.0
53905.0,STARLINK-5003,PAYLOAD,2022-11-16 20:00:01,15.73552793,0.0003863,53.217,351.3428,1.3933,268.2515,-0.0031728,-0.00430681,0.0,0 STARLINK-5003,1 53905U 22119V   22320.83334491 -.00430681  00000-0 -31728-2 0  9998,2 53905  53.2170 351.3428 0003863   1.3933 268.2515 15.73552793  8753,6726.89,91.513,351.353,346.156,0.0
53905.0,STARLINK-5003,PAYLOAD,2022-11-16 22:00:08,15.73485532,0.0003805,53.2169,350.9267,0.1365,22.2877,-0.0030293,-0.00410971,0.0,0 STARLINK-5003,1 53905U 22119V   22320.91675926 -.00410971  00000-0 -30293-2 0  9994,2 53905  53.2169 350.9267 0003805   0.1365  22.2877 15.73485532  1308,6727.081,91.517,351.506,346.38699999999994,0.0
53905.0,STARLINK-5003,PAYLOAD,2022-11-17 04:00:00,15.73235882,0.0004114,53.2156,349.7105,6.8795,351.7127,0.00022168,0.00030661,0.0,0 STARLINK-5003,1 53905U 22119V   22321.16667824  .00030661  00000-0  22168-3 0  9995,2 53905  53.2156 349.7105 0004114   6.8795 351.7127 15.73235882  8806,6727.793000000002,91.531,352.426,346.89,0.0
53905.0,STARLINK-5003,PAYLOAD,2022-11-17 14:00:01,15.73288259,0.00044,53.2152,347.6503,5.3749,194.4695,-0.00024083,-0.00034435,0.0,0 STARLINK-5003,1 53905U 22119V   22321.58334491 -.00034435  00000-0 -24083-3 0  9995,2 53905  53.2152 347.6503 0004400   5.3749 194.4695 15.73288259  1308,6727.644,91.528,352.469,346.548,0.0
53905.0,STARLINK-5003,PAYLOAD,2022-11-17 22:00:00,15.73253763,0.0004177,53.2153,345.9986,2.77,286.1032,-0.0001737,-0.00024999,0.0,0 STARLINK-5003,1 53905U 22119V   22321.91667824 -.00024999  00000-0 -17370-3 0  9996,2 53905  53.2153 345.9986 0004177   2.7700 286.1032 15.73253763  1300,6727.7419999999975,91.53,352.417,346.797,0.0
53905.0,STARLINK-5003,PAYLOAD,2022-11-18 06:00:00,15.73240182,0.0004286,53.2151,344.3501,1.5104,16.3452,-0.00048752,-0.00068648,0.0,0 STARLINK-5003,1 53905U 22119V   22322.25001157 -.00068648  00000-0 -48752-3 0  9992,2 53905  53.2151 344.3501 0004286   1.5104  16.3452 15.73240182  8970,6727.781,91.531,352.529,346.76199999999994,0.0
53905.0,STARLINK-5003,PAYLOAD,2022-11-18 14:00:01,15.7318557,0.0004504,53.2144,342.7014,1.3089,105.4813,0.00046282,0.00064824,0.0,0 STARLINK-5003,1 53905U 22119V   22322.58334491  .00064824  00000-0  46282-3 0  9994,2 53905  53.2144 342.7014 0004504   1.3089 105.4813 15.73185570  1306,6727.936,91.534,352.832,346.771,0.0
53905.0,STARLINK-5003,PAYLOAD,2022-11-18 20:00:01,15.73232436,0.0004245,53.2147,341.4627,0.4282,83.0615,-9.5047e-05,-0.00013968,0.0,0 STARLINK-5003,1 53905U 22119V   22322.83334491 -.00013968  00000-0 -95047-4 0  9991,2 53905  53.2147 341.4627 0004245   0.4282  83.0615 15.73232436  9079,6727.803000000001,91.531,352.524,346.81199999999984,0.0
53905.0,STARLINK-5003,PAYLOAD,2022-11-18 22:00:00,15.73235981,0.0004188,53.2145,341.0498,0.3852,195.351,-4.7936e-05,-7.361e-05,0.0,0 STARLINK-5003,1 53905U 22119V   22322.91667824 -.00007361  00000-0 -47936-4 0  9993,2 53905  53.2145 341.0498 0004188   0.3852 195.3510 15.73235981  1304,6727.793000000002,91.531,352.475,346.84,0.0
53905.0,STARLINK-5003,PAYLOAD,2022-11-19 06:00:00,15.73189153,0.0004082,53.2171,339.3787,5.4323,279.2292,0.00018269,0.0002509,0.0,0 STARLINK-5003,1 53905U 22119V   22323.25001157  .00025090  00000-0  18269-3 0  9995,2 53905  53.2171 339.3787 0004082   5.4323 279.2292 15.73189153  9133,6727.926,91.534,352.537,347.045,0.0
53905.0,STARLINK-5003,PAYLOAD,2022-11-19 14:00:01,15.73189507,0.0004591,53.2145,337.7526,5.9043,7.7636,0.00034018,0.00047391,0.0,0 STARLINK-5003,1 53905U 22119V   22323.58334491  .00047391  00000-0  34018-3 0  9999,2 53905  53.2145 337.7526 0004591   5.9043   7.7636 15.73189507  9180,6727.925,91.534,352.879,346.701,0.0
53905.0,STARLINK-5003,PAYLOAD,2022-11-19 22:00:00,15.73221276,0.0004343999999999,53.2145,336.1011,5.6013,97.0046,7.2887e-06,3.99e-06,0.0,0 STARLINK-5003,1 53905U 22119V   22323.91667824  .00000399  00000-0  72887-5 0  9990,2 53905  53.2145 336.1011 0004344   5.6013  97.0046 15.73221276  1305,6727.835,91.532,352.622,346.777,0.0
53905.0,STARLINK-5003,PAYLOAD,2022-11-20 06:00:00,15.73217743,0.0004489,53.2142,334.4530000000001,5.3323,186.2281,-5.2126e-05,-7.944e-05,0.0,0 STARLINK-5003,1 53905U 22119V   22324.25001157 -.00007944  00000-0 -52126-4 0  9997,2 53905  53.2142 334.4530 0004489   5.3323 186.2281 15.73217743  9292,6727.845,91.532,352.73,346.689,0.0
53905.0,STARLINK-5003,PAYLOAD,2022-11-20 14:00:01,15.73234923,0.0004489,53.2135,332.8037,3.6615,276.8385,-0.00055684,-0.0007822,0.0,0 STARLINK-5003,1 53905U 22119V   22324.58334491 -.00078220  00000-0 -55684-3 0  9999,2 53905  53.2135 332.8037 0004489   3.6615 276.8385 15.73234923  1307,6727.795999999999,91.531,352.681,346.641,0.0
53905.0,STARLINK-5003,PAYLOAD,2022-11-20 22:00:00,15.73136981,0.0004161,53.2136,331.1521,2.7125,6.7374,0.00062839,0.00088294,0.0,0 STARLINK-5003,1 53905U 22119V   22324.91667824  .00088294  00000-0  62839-3 0  9995,2 53905  53.2136 331.1521 0004161   2.7125   6.7374 15.73136981  9391,6728.075,91.537,352.73900000000015,347.14,0.0
53905.0,STARLINK-5003,PAYLOAD,2022-11-21 14:00:01,15.73182965,0.0004458,53.2136,327.8548,1.9883,185.2664,0.00024896,0.00034451,0.0,0 STARLINK-5003,1 53905U 22119V   22325.58334491  .00034451  00000-0  24896-3 0  9997,2 53905  53.2136 327.8548 0004458   1.9883 185.2664 15.73182965  9504,6727.944,91.534,352.80800000000005,346.809,0.0
53905.0,STARLINK-5003,PAYLOAD,2022-11-21 22:00:00,15.73192261,0.0004251,53.2136,326.2032,3.0194,273.1642,0.00063402,0.00089315,0.0,0 STARLINK-5003,1 53905U 22119V   22325.91667824  .00089315  00000-0  63402-3 0  9998,2 53905  53.2136 326.2032 0004251   3.0194 273.1642 15.73192261  1307,6727.917,91.534,352.642,346.922,0.0
53905.0,STARLINK-5003,PAYLOAD,2022-11-22 14:00:01,15.73215648,0.0004413,53.2127,322.9053,0.6821,93.4887,-0.00041855,-0.00059031,0.0,0 STARLINK-5003,1 53905U 22119V   22326.58335648 -.00059031  00000-0 -41855-3 0  9990,2 53905  53.2127 322.9053 0004413   0.6821  93.4887 15.73215648  9669,6727.851,91.532,352.685,346.747,0.0
53905.0,STARLINK-5003,PAYLOAD,2022-11-22 22:00:00,15.73188689,0.0004088,53.2129,321.2539,2.5423,180.4833,-6.128399999999999e-05,-9.216e-05,0.0,0 STARLINK-5003,1 53905U 22119V   22326.91667824 -.00009216  00000-0 -61284-4 0  9990,2 53905  53.2129 321.2539 0004088   2.5423 180.4833 15.73188689  1304,6727.927,91.534,352.543,347.042,0.0
53905.0,STARLINK-5003,PAYLOAD,2022-11-23 06:00:00,15.73158612,0.0004364,53.213,319.6062,6.1783,265.7649,0.00021997,0.00030319,0.0,0 STARLINK-5003,1 53905U 22119V   22327.25001157  .00030319  00000-0  21997-3 0  9991,2 53905  53.2130 319.6062 0004364   6.1783 265.7649 15.73158612  9767,6728.013000000001,91.536,352.814,346.94199999999995,0.0
53905.0,STARLINK-5003,PAYLOAD,2022-11-23 14:00:01,15.73200056,0.0004422,53.2132,317.9564,5.8881,354.9385,0.00012126,0.00016435,0.0,0 STARLINK-5003,1 53905U 22119V   22327.58334491  .00016435  00000-0  12126-3 0  9994,2 53905  53.2132 317.9564 0004422   5.8881 354.9385 15.73200056  1318,6727.895,91.533,352.735,346.785,0.0
53905.0,STARLINK-5003,PAYLOAD,2022-11-23 22:00:00,15.73223463,0.0004191,53.2133,316.3049,6.7931,82.9719,-0.00022216,-0.00031734,0.0,0 STARLINK-5003,1 53905U 22119V   22327.91667824 -.00031734  00000-0 -22216-3 0  9992,2 53905  53.2133 316.3049 0004191   6.7931  82.9719 15.73223463  1304,6727.828,91.532,352.51300000000015,346.874,0.0
53905.0,STARLINK-5003,PAYLOAD,2022-11-24 06:00:02,15.7320105,0.00044,53.2131,314.6571,6.4907,172.2848,4.4131e-05,5.576e-05,0.0,0 STARLINK-5003,1 53905U 22119V   22328.25002315  .00005576  00000-0  44131-4 0  9992,2 53905  53.2131 314.6571 0004400   6.4907 172.2848 15.73201050  9926,6727.892,91.533,352.717,346.797,0.0
53905.0,STARLINK-5003,PAYLOAD,2022-11-24 14:00:01,15.73220344,0.0004226,53.2134,313.003,4.5753,263.0721,-0.00035009,-0.0004954,0.0,0 STARLINK-5003,1 53905U 22119V   22328.58334491 -.00049540  00000-0 -35009-3 0  9995,2 53905  53.2134 313.0030 0004226   4.5753 263.0721 15.73220344  1306,6727.837,91.532,352.545,346.8590000000001,0.0
53905.0,STARLINK-5003,PAYLOAD,2022-11-24 22:00:00,15.73358224,0.0003637,53.215,311.342,352.324,4.2346,-0.0042977,-0.00568997,0.0,0 STARLINK-5003,1 53905U 22119V   22328.91667824 -.00568997  00000-0 -42977-2 0  9994,2 53905  53.2150 311.3420 0003637 352.3240   4.2346 15.73358224 10024,6727.444,91.524,351.756,346.862,0.0
53905.0,STARLINK-5003,PAYLOAD,2022-11-25 06:00:00,15.72986859,0.0003486,53.2167,309.6882,318.7336,126.7362,-0.0070302,-0.00882186,0.0,0 STARLINK-5003,1 53905U 22119V   22329.25001157 -.00882186  00000-0 -70302-2 0  9995,2 53905  53.2167 309.6882 0003486 318.7336 126.7362 15.72986859 10082,6728.503000000002,91.546,352.713,348.022,0.0
